[{"OBJECT_NAME":"SAUDISAT 5B","OBJECT_ID":"2018-102C","EPOCH":"2026-03-09T22:59:17.457216","MEAN_MOTION":15.27248504,"ECCENTRICITY":0.00120577,"INCLINATION":97.3281,"RA_OF_ASC_NODE":135.3629,"ARG_OF_PERICENTER":124.0958,"MEAN_ANOMALY":236.1427,"EPHEMERIS_TYPE":0,"CLASSIFICATION_TYPE":"U","NORAD_CAT_ID":43833,"ELEMENT_SET_NO":999,"REV_AT_EPOCH":40064,"BSTAR":0.00024926623,"MEAN_MOTION_DOT":6.596e-5,"MEAN_MOTION_DDOT":0},{"OBJECT_NAME":"STTW-T1","OBJECT_ID":"1984-008A","EPOCH":"2026-03-09T10:28:05.666880","MEAN_MOTION":9.04119973,"ECCENTRICITY":0.29688887,"INCLINATION":36.1124,"RA_OF_ASC_NODE":220.3346,"ARG_OF_PERICENTER":87.4014,"MEAN_ANOMALY":305.8001,"EPHEMERIS_TYPE":0,"CLASSIFICATION_TYPE":"U","NORAD_CAT_ID":14670,"ELEMENT_SET_NO":999,"REV_AT_EPOCH":37507,"BSTAR":0.0004629166,"MEAN_MOTION_DOT":9.26e-6,"MEAN_MOTION_DDOT":0}]
